id,spkid,full_name,pdes,name,prefix,neo,pha,H,diameter,albedo,diameter_sigma,orbit_id,epoch,epoch_mjd,epoch_cal,equinox,e,a,q,i,om,w,ma,ad,n,tp,tp_cal,per,per_y,moid,moid_ld,sigma_e,sigma_a,sigma_q,sigma_i,sigma_om,sigma_w,sigma_ma,sigma_ad,sigma_n,sigma_tp,sigma_per,class,rms
a0000073,2000073,    73 Klytia,73,Klytia,,N,N,9,44.59,0.223,0.941,JPL 39,2459000.5,59000,20200531,J2000,0.041799657,2.666375297,2.554921725,2.368881785,6.879375167,53.84371154,245.8304085,2.777828869,0.226371713,2459504.846,20211017.35,1590.3047,4.354016976,1.56794,610.1952098,3.79E-08,9.34E-09,9.96E-08,4.24E-06,9.84E-05,0.00011055,5.13E-05,9.73E-09,1.19E-09,0.0002272,8.35E-06,MBA,0.48229
a0000074,2000074,    74 Galatea,74,Galatea,,N,N,8.7,118.71,0.0431,2.8,JPL 97,2459000.5,59000,20200531,J2000,0.235849288,2.780263375,2.124540238,4.070703542,197.1434014,174.5382204,359.6915801,3.435986512,0.212605828,2459001.951,20200601.45,1693.27437,4.635932568,1.12477,437.7267409,2.79E-08,7.07E-09,7.70E-08,3.19E-06,5.28E-05,5.34E-05,9.49E-06,8.74E-09,8.11E-10,4.47E-05,6.46E-06,MBA,0.49207
a0000075,2000075,    75 Eurydike,75,Eurydike,,N,N,9,62.377,0.117,1.603,JPL 80,2459000.5,59000,20200531,J2000,0.303521898,2.673994297,1.862378472,4.991511832,359.3390467,339.3368142,52.00910836,3.485610122,0.225404903,2458769.764,20191013.26,1597.125861,4.372692295,0.854684,332.6173723,3.83E-08,4.58E-09,1.02E-07,4.43E-06,3.72E-05,3.75E-05,6.18E-06,5.97E-09,5.79E-10,2.71E-05,4.10E-06,MBA,0.47712
a0000076,2000076,    76 Freia,76,Freia,,N,N,8,145.423,0.058,1.287,JPL 52,2459000.5,59000,20200531,J2000,0.166010853,3.414264879,2.847459854,2.121333842,204.3009575,252.2670098,346.7613476,3.981069904,0.156227779,2459085.239,20200823.74,2304.327713,6.308905444,1.86521,725.8837757,3.11E-08,1.04E-08,1.08E-07,3.50E-06,9.95E-05,0.00010014,1.20E-05,1.22E-08,7.15E-10,7.70E-05,1.06E-05,OMB,0.45949
a0000077,2000077,    77 Frigga,77,Frigga,,N,N,8.6,61.39,0.177,0.177,JPL 81,2459000.5,59000,20200531,J2000,0.132557844,2.668864037,2.315085175,2.422694506,1.14456383,61.78325065,13.87223727,3.022642899,0.226055147,2458939.133,20200330.63,1592.531756,4.360114322,1.32936,517.3470312,3.50E-08,5.62E-09,9.46E-08,3.54E-06,8.54E-05,8.63E-05,1.29E-05,6.36E-09,7.13E-10,5.71E-05,5.03E-06,MBA,0.47974
a0000078,2000078,    78 Diana,78,Diana,,N,N,8.4,120.6,0.0706,2.7,JPL 91,2459000.5,59000,20200531,J2000,0.207148362,2.618808182,2.076326356,8.701905011,333.3971838,152.740102,51.29129937,3.161290008,0.232567241,2458779.956,20191023.46,1547.939422,4.238027164,1.09539,426.2929263,3.65E-08,4.77E-09,9.62E-08,4.84E-06,2.65E-05,2.91E-05,1.14E-05,5.76E-09,6.36E-10,4.90E-05,4.23E-06,MBA,0.4694
a0000079,2000079,    79 Eurynome,79,Eurynome,,N,N,8,63.479,0.287,0.952,JPL 110,2459000.5,59000,20200531,J2000,0.189957924,2.444635923,1.980257958,4.612512692,206.533616,201.5110122,331.5056008,2.909013887,0.257859294,2459111.004,20200918.5,1396.110234,3.822341504,0.990903,385.6297205,3.36E-08,3.71E-09,8.21E-08,4.03E-06,5.32E-05,5.45E-05,1.31E-05,4.42E-09,5.87E-10,5.09E-05,3.18E-06,MBA,0.47538
a0000080,2000080,    80 Sappho,80,Sappho,,N,N,8,68.563,0.206,1.033,JPL 42,2459000.5,59000,20200531,J2000,0.200313448,2.295291517,1.83551376,8.676073569,218.6882246,139.6195206,210.6623848,2.755069275,0.283430966,2459527.392,20211108.89,1270.150561,3.477482713,0.842636,327.9286521,2.65E-08,3.56E-09,6.08E-08,3.85E-06,2.02E-05,2.29E-05,1.13E-05,4.27E-09,6.59E-10,4.03E-05,2.95E-06,MBA,0.51852
a0000081,2000081,    81 Terpsichore,81,Terpsichore,,N,N,8.6,117.727,0.045,0.734,JPL 53,2459000.5,59000,20200531,J2000,0.210847349,2.853711595,2.252014071,7.803140413,0.947942771,51.63427748,69.00207242,3.455409119,0.204450866,2458663,20190628.5,1760.81426,4.820846707,1.27219,495.0981823,3.41E-08,7.63E-09,9.60E-08,4.11E-06,2.20E-05,2.37E-05,8.98E-06,9.24E-09,8.20E-10,4.32E-05,7.06E-06,MBA,0.37395
a0000082,2000082,    82 Alkmene,82,Alkmene,,N,N,8.2,57.621,0.167,0.714,JPL 108,2459000.5,59000,20200531,J2000,0.220280816,2.762811974,2.154217498,2.826473076,25.44437908,111.1670688,261.5988251,3.371406451,0.214623404,2459458.983,20210901.48,1677.356675,4.592352293,1.16989,455.2860913,3.52E-08,4.35E-09,9.65E-08,2.96E-06,8.22E-05,8.25E-05,7.73E-06,5.30E-09,5.06E-10,3.66E-05,3.96E-06,MBA,0.49309
a0000083,2000083,    83 Beatrix,83,Beatrix,,N,N,8.8,110.503,0.05,0.829,JPL 105,2459000.5,59000,20200531,J2000,0.08129869,2.431964225,2.23424872,4.963774284,27.72640763,168.5949627,333.5711077,2.629679731,0.259877273,2459102.198,20200909.7,1385.269269,3.79266056,1.23248,479.6442416,3.36E-08,5.58E-09,8.34E-08,3.70E-06,4.74E-05,5.46E-05,2.78E-05,6.04E-09,8.95E-10,0.00010711,4.77E-06,MBA,0.46154
a0000084,2000084,    84 Klio,84,Klio,,N,N,9.4,79.16,0.0527,1.6,JPL 82,2459000.5,59000,20200531,J2000,0.236185765,2.36185575,1.804019042,9.317399766,327.5145864,15.1425534,215.9097562,2.919692459,0.271533876,2459531.153,20211112.65,1325.801425,3.629846474,0.797269,310.2731767,4.15E-08,2.57E-09,9.78E-08,4.72E-06,2.26E-05,2.40E-05,1.01E-05,3.18E-09,4.43E-10,3.76E-05,2.17E-06,MBA,0.44805
a0000085,2000085,    85 Io,85,Io,,N,N,7.7,154.79,0.0666,3.8,JPL 102,2459000.5,59000,20200531,J2000,0.194709336,2.652997728,2.136434302,11.9593979,203.1041696,122.9016238,312.1195459,3.169561153,0.228086067,2459210.423,20201226.92,1578.35156,4.321291061,1.15288,448.6663096,3.00E-08,4.25E-09,8.02E-08,3.18E-06,1.61E-05,1.79E-05,8.99E-06,5.08E-09,5.48E-10,3.96E-05,3.79E-06,MBA,0.4689
a0000086,2000086,    86 Semele,86,Semele,,N,N,8.7,109.929,0.056,0.609,JPL 98,2459000.5,59000,20200531,J2000,0.21513746,3.107374383,2.438861751,4.820528072,86.09722929,308.9030567,63.86235821,3.775887015,0.179934194,2458645.579,20190611.08,2000.731448,5.47770417,1.4494,564.062998,3.80E-08,9.19E-09,1.19E-07,3.53E-06,5.01E-05,5.06E-05,8.81E-06,1.12E-08,7.98E-10,4.80E-05,8.87E-06,MBA,0.46265
a0000087,2000087,    87 Sylvia,87,Sylvia,,N,N,6.8,253.051,0.046,2.953,JPL 88,2459000.5,59000,20200531,J2000,0.093403615,3.482070736,3.15683274,10.87598568,73.04063872,263.5897258,153.4227032,3.807308733,0.151686765,2457989.056,20170823.56,2373.311867,6.497773764,2.17294,845.6430598,2.99E-08,1.26E-08,1.04E-07,3.68E-06,1.77E-05,2.81E-05,2.33E-05,1.37E-08,8.21E-10,0.00015208,1.28E-05,OMB,0.39616
a0000088,2000088,    88 Thisbe,88,Thisbe,,N,N,7.2,232,0.0671,,JPL 151,2459000.5,59000,20200531,J2000,0.161753375,2.770007817,2.321949705,5.214024459,276.459728,36.3450025,134.5304351,3.21806593,0.213787634,2458371.229,20180909.73,1683.914044,4.61030539,1.31019,509.8866423,2.43E-08,3.89E-09,6.73E-08,2.97E-06,2.36E-05,2.51E-05,8.99E-06,4.52E-09,4.50E-10,4.16E-05,3.55E-06,MBA,0.50291
a0000089,2000089,    89 Julia,89,Julia,,N,N,6.8,145.483,0.189,1.265,JPL 108,2459000.5,59000,20200531,J2000,0.185008383,2.549542995,2.077856167,16.13084118,311.553329,45.3288646,234.3543461,3.021229823,0.242108793,2459519.464,20211031.96,1486.93484,4.071005721,1.09991,428.0519747,4.36E-08,4.62E-09,1.12E-07,3.76E-06,1.69E-05,1.96E-05,1.05E-05,5.48E-09,6.58E-10,4.37E-05,4.04E-06,MBA,0.55583
a0000090,2000090,    90 Antiope,90,Antiope,,N,N,8.1,115.974,0.058,1.107,JPL 103,2459000.5,59000,20200531,J2000,0.166499515,3.148725611,2.624464323,2.206751496,69.96053943,244.9419889,215.6355445,3.672986898,0.176401327,2459818.886,20220827.39,2040.800969,5.587408538,1.61168,627.2175056,3.28E-08,8.64E-09,1.05E-07,3.67E-06,9.70E-05,9.75E-05,1.09E-05,1.01E-08,7.26E-10,6.19E-05,8.40E-06,MBA,0.41387
a0000091,2000091,    91 Aegina,91,Aegina,,N,N,8.9,103.402,0.048,0.483,JPL 120,2459000.5,59000,20200531,J2000,0.106382904,2.589529376,2.314047722,2.103207471,10.44305216,74.2717422,261.3310234,2.86501103,0.236522691,2459417.665,20210722.16,1522.0527,4.167153184,1.33125,518.0825625,3.79E-08,5.54E-09,9.82E-08,3.14E-06,0.00011043,0.00011164,1.64E-05,6.13E-09,7.59E-10,7.00E-05,4.88E-06,MBA,0.49843
a0000092,2000092,    92 Undina,92,Undina,,N,N,6.7,126.42,0.2509,3.4,JPL 98,2459000.5,59000,20200531,J2000,0.104862648,3.1851789,2.851172605,9.932020026,101.5803096,239.0703042,249.1220808,3.519185195,0.173381729,2459640.002,20220301.5,2076.343354,5.684718285,1.85767,722.9494339,4.08E-08,9.07E-09,1.33E-07,4.38E-06,2.69E-05,3.41E-05,2.24E-05,1.00E-08,7.41E-10,0.00012995,8.87E-06,MBA,0.46947
a0000093,2000093,    93 Minerva,93,Minerva,,N,N,7.9,154.155,0.056,1.298,JPL 114,2459000.5,59000,20200531,J2000,0.139066233,2.756376884,2.373057934,8.556424092,4.030975592,274.9405843,203.1480034,3.139695834,0.215375439,2459728.772,20220529.27,1671.499787,4.576317007,1.37608,535.5290536,3.44E-08,7.37E-09,9.58E-08,3.79E-06,2.29E-05,2.69E-05,1.48E-05,8.40E-09,8.64E-10,7.01E-05,6.70E-06,MBA,0.45323
a0000094,2000094,    94 Aurora,94,Aurora,,N,N,7.6,204.89,0.0395,3.6,JPL 99,2459000.5,59000,20200531,J2000,0.094273487,3.157818068,2.860119547,7.969380915,2.56535219,60.34317399,19.26394513,3.45551659,0.175639995,2458890.821,20200211.32,2049.647064,5.611627829,1.88319,732.8810523,2.99E-08,1.20E-08,9.86E-08,3.49E-06,2.58E-05,3.33E-05,2.10E-05,1.31E-08,1.00E-09,0.00011955,1.17E-05,MBA,0.37586
a0000095,2000095,    95 Arethusa,95,Arethusa,,N,N,8,147.969,0.058,5.148,JPL 39,2459000.5,59000,20200531,J2000,0.152788728,3.064051147,2.59589867,12.99563182,243.0199018,153.7846512,147.7093153,3.532203625,0.18376384,2458196.7,20180319.2,1959.036117,5.363548575,1.61108,626.9840036,3.64E-08,8.30E-09,1.12E-07,4.12E-06,2.03E-05,2.50E-05,1.52E-05,9.57E-09,7.47E-10,8.16E-05,7.96E-06,MBA,0.43827
a0000096,2000096,    96 Aegle,96,Aegle,,N,N,7.7,177.774,0.048,1.543,JPL 97,2459000.5,59000,20200531,J2000,0.141177946,3.048360537,2.617999256,15.98222195,321.4899545,208.4618392,178.4786356,3.478721817,0.185184476,2458036.712,20171010.21,1944.007441,5.322402303,1.63683,637.0051311,3.81E-08,1.20E-08,1.19E-07,5.08E-06,1.13E-05,1.95E-05,1.68E-05,1.37E-08,1.10E-09,9.02E-05,1.15E-05,MBA,0.40713
